{
  "type": "FeatureCollection",
  "features": [
    {
      "type": "Feature",
      "properties": {
        "norad_id": 41890,
        "name": "CYGFM07",
        "group": "weather",
        "lat": 8.777336834821222,
        "lon": -142.70300628012853,
        "alt_km": 408.9888039804446,
        "timestamp": "2025-12-08T08:59:00.414907+00:00",
        "meta_object_name": "CYGFM07",
        "meta_object_id": "2016-078G",
        "meta_epoch": "2025-12-07T21:27:17.966016",
        "meta_mean_motion": 15.49708056,
        "meta_eccentricity": 0.00093424,
        "meta_inclination": 34.9481,
        "meta_ra_of_asc_node": 53.2183,
        "meta_arg_of_pericenter": 172.4,
        "meta_mean_anomaly": 187.6865,
        "meta_ephemeris_type": 0,
        "meta_classification_type": "U",
        "meta_norad_cat_id": 41890,
        "meta_element_set_no": 999,
        "meta_rev_at_epoch": 49920,
        "meta_bstar": 0.00044905353,
        "meta_mean_motion_dot": 0.00025772,
        "meta_mean_motion_ddot": 0,
        "tle_line1": "1 41890U 16078G   25341.89395794  .00025772  00000+0  44905-3 0  9990",
        "tle_line2": "2 41890  34.9481  53.2183 0009342 172.4000 187.6865 15.49708056499207"
      },
      "geometry": {
        "type": "Point",
        "coordinates": [
          -142.70300628012853,
          8.777336834821222
        ]
      }
    },
    {
      "type": "Feature",
      "properties": {
        "norad_id": 41891,
        "name": "CYGFM03",
        "group": "weather",
        "lat": 0.38860139995340937,
        "lon": 52.5419690005967,
        "alt_km": 422.26962687421474,
        "timestamp": "2025-12-08T08:59:00.414917+00:00",
        "meta_object_name": "CYGFM03",
        "meta_object_id": "2016-078H",
        "meta_epoch": "2025-12-07T22:09:27.003744",
        "meta_mean_motion": 15.49611239,
        "meta_eccentricity": 0.00086566,
        "meta_inclination": 34.9435,
        "meta_ra_of_asc_node": 54.9413,
        "meta_arg_of_pericenter": 160.1803,
        "meta_mean_anomaly": 199.9256,
        "meta_ephemeris_type": 0,
        "meta_classification_type": "U",
        "meta_norad_cat_id": 41891,
        "meta_element_set_no": 999,
        "meta_rev_at_epoch": 49918,
        "meta_bstar": 0.00045455674,
        "meta_mean_motion_dot": 0.00025993,
        "meta_mean_motion_ddot": 0,
        "tle_line1": "1 41891U 16078H   25341.92322921  .00025993  00000+0  45456-3 0  9994",
        "tle_line2": "2 41891  34.9435  54.9413 0008656 160.1803 199.9256 15.49611239499186"
      },
      "geometry": {
        "type": "Point",
        "coordinates": [
          52.5419690005967,
          0.38860139995340937
        ]
      }
    },
    {
      "type": "Feature",
      "properties": {
        "norad_id": 43010,
        "name": "FENGYUN 3D",
        "group": "weather",
        "lat": 28.461233862680455,
        "lon": -56.3029548354283,
        "alt_km": 825.6310845981288,
        "timestamp": "2025-12-08T08:59:00.414928+00:00",
        "meta_object_name": "FENGYUN 3D",
        "meta_object_id": "2017-072A",
        "meta_epoch": "2025-12-07T22:41:57.069888",
        "meta_mean_motion": 14.19681679,
        "meta_eccentricity": 7.917e-05,
        "meta_inclination": 98.9888,
        "meta_ra_of_asc_node": 308.1844,
        "meta_arg_of_pericenter": 197.1713,
        "meta_mean_anomaly": 162.9436,
        "meta_ephemeris_type": 0,
        "meta_classification_type": "U",
        "meta_norad_cat_id": 43010,
        "meta_element_set_no": 999,
        "meta_rev_at_epoch": 41785,
        "meta_bstar": 0.00011542708,
        "meta_mean_motion_dot": 1.98e-06,
        "meta_mean_motion_ddot": 0,
        "tle_line1": "1 43010U 17072A   25341.94579942  .00000198  00000+0  11543-3 0  9993",
        "tle_line2": "2 43010  98.9888 308.1844 0000791 197.1713 162.9436 14.19681679417852"
      },
      "geometry": {
        "type": "Point",
        "coordinates": [
          -56.3029548354283,
          28.461233862680455
        ]
      }
    },
    {
      "type": "Feature",
      "properties": {
        "norad_id": 43013,
        "name": "NOAA 20 (JPSS-1)",
        "group": "weather",
        "lat": -3.949475381471183,
        "lon": 98.10905265922497,
        "alt_km": 830.4004416194002,
        "timestamp": "2025-12-08T08:59:00.414940+00:00",
        "meta_object_name": "NOAA 20 (JPSS-1)",
        "meta_object_id": "2017-073A",
        "meta_epoch": "2025-12-07T21:58:12.789984",
        "meta_mean_motion": 14.1952356,
        "meta_eccentricity": 0.00021134,
        "meta_inclination": 98.7592,
        "meta_ra_of_asc_node": 278.2652,
        "meta_arg_of_pericenter": 94.3008,
        "meta_mean_anomaly": 265.841,
        "meta_ephemeris_type": 0,
        "meta_classification_type": "U",
        "meta_norad_cat_id": 43013,
        "meta_element_set_no": 999,
        "meta_rev_at_epoch": 41733,
        "meta_bstar": 9.3645702e-05,
        "meta_mean_motion_dot": 1.53e-06,
        "meta_mean_motion_ddot": 0,
        "tle_line1": "1 43013U 17073A   25341.91542581  .00000153  00000+0  93646-4 0  9999",
        "tle_line2": "2 43013  98.7592 278.2652 0002113  94.3008 265.8410 14.19523560417336"
      },
      "geometry": {
        "type": "Point",
        "coordinates": [
          98.10905265922497,
          -3.949475381471183
        ]
      }
    },
    {
      "type": "Feature",
      "properties": {
        "norad_id": 43226,
        "name": "GOES 17",
        "group": "weather",
        "lat": 0.26141728448459584,
        "lon": 122.60888610597657,
        "alt_km": 35799.34364356165,
        "timestamp": "2025-12-08T08:59:00.414952+00:00",
        "meta_object_name": "GOES 17",
        "meta_object_id": "2018-022A",
        "meta_epoch": "2025-12-07T21:46:11.769024",
        "meta_mean_motion": 1.00270811,
        "meta_eccentricity": 0.00035023,
        "meta_inclination": 0.447,
        "meta_ra_of_asc_node": 89.1971,
        "meta_arg_of_pericenter": 184.771,
        "meta_mean_anomaly": 40.0041,
        "meta_ephemeris_type": 0,
        "meta_classification_type": "U",
        "meta_norad_cat_id": 43226,
        "meta_element_set_no": 999,
        "meta_rev_at_epoch": 2850,
        "meta_bstar": 0,
        "meta_mean_motion_dot": -1.79e-06,
        "meta_mean_motion_ddot": 0,
        "tle_line1": "1 43226U 18022A   25341.90708066 -.00000179  00000+0  00000+0 0  9997",
        "tle_line2": "2 43226   0.4470  89.1971 0003502 184.7710  40.0041  1.00270811 28501"
      },
      "geometry": {
        "type": "Point",
        "coordinates": [
          122.60888610597657,
          0.26141728448459584
        ]
      }
    },
    {
      "type": "Feature",
      "properties": {
        "norad_id": 43491,
        "name": "FENGYUN 2H",
        "group": "weather",
        "lat": -1.2936328013865441,
        "lon": -68.50525175127753,
        "alt_km": 35777.66612485928,
        "timestamp": "2025-12-08T08:59:00.414979+00:00",
        "meta_object_name": "FENGYUN 2H",
        "meta_object_id": "2018-050A",
        "meta_epoch": "2025-12-07T22:34:20.814816",
        "meta_mean_motion": 1.002713,
        "meta_eccentricity": 0.00028794,
        "meta_inclination": 2.5381,
        "meta_ra_of_asc_node": 81.3825,
        "meta_arg_of_pericenter": 165.7757,
        "meta_mean_anomaly": 247.7471,
        "meta_ephemeris_type": 0,
        "meta_classification_type": "U",
        "meta_norad_cat_id": 43491,
        "meta_element_set_no": 999,
        "meta_rev_at_epoch": 2752,
        "meta_bstar": 0,
        "meta_mean_motion_dot": -1.28e-06,
        "meta_mean_motion_ddot": 0,
        "tle_line1": "1 43491U 18050A   25341.94051869 -.00000128  00000+0  00000+0 0  9992",
        "tle_line2": "2 43491   2.5381  81.3825 0002879 165.7757 247.7471  1.00271300 27525"
      },
      "geometry": {
        "type": "Point",
        "coordinates": [
          -68.50525175127753,
          -1.2936328013865441
        ]
      }
    },
    {
      "type": "Feature",
      "properties": {
        "norad_id": 43689,
        "name": "METOP-C",
        "group": "weather",
        "lat": -64.68349452662831,
        "lon": 59.08187221044804,
        "alt_km": 827.9142588842951,
        "timestamp": "2025-12-08T08:59:00.414993+00:00",
        "meta_object_name": "METOP-C",
        "meta_object_id": "2018-087A",
        "meta_epoch": "2025-12-07T21:28:08.282784",
        "meta_mean_motion": 14.2150891,
        "meta_eccentricity": 0.00015383,
        "meta_inclination": 98.6936,
        "meta_ra_of_asc_node": 39.7382,
        "meta_arg_of_pericenter": 50.6529,
        "meta_mean_anomaly": 309.4784,
        "meta_ephemeris_type": 0,
        "meta_classification_type": "U",
        "meta_norad_cat_id": 43689,
        "meta_element_set_no": 999,
        "meta_rev_at_epoch": 36765,
        "meta_bstar": 0.00012877352,
        "meta_mean_motion_dot": 2.38e-06,
        "meta_mean_motion_ddot": 0,
        "tle_line1": "1 43689U 18087A   25341.89454031  .00000238  00000+0  12877-3 0  9993",
        "tle_line2": "2 43689  98.6936  39.7382 0001538  50.6529 309.4784 14.21508910367652"
      },
      "geometry": {
        "type": "Point",
        "coordinates": [
          59.08187221044804,
          -64.68349452662831
        ]
      }
    }
  ]
}